[{"OBJECT_NAME":"STARLINK-4211","OBJECT_ID":"2022-062AV","EPOCH":"2026-03-09T05:25:01.571232","MEAN_MOTION":15.08830167,"ECCENTRICITY":0.00014161,"INCLINATION":53.2203,"RA_OF_ASC_NODE":16.2045,"ARG_OF_PERICENTER":96.2205,"MEAN_ANOMALY":263.8949,"EPHEMERIS_TYPE":0,"CLASSIFICATION_TYPE":"U","NORAD_CAT_ID":52873,"ELEMENT_SET_NO":999,"REV_AT_EPOCH":20599,"BSTAR":3.3241054e-5,"MEAN_MOTION_DOT":2.41e-6,"MEAN_MOTION_DDOT":0},{"OBJECT_NAME":"COSMOS 374 DEB","OBJECT_ID":"1970-089S","EPOCH":"2026-03-09T06:34:35.690880","MEAN_MOTION":13.3804244,"ECCENTRICITY":0.08148806,"INCLINATION":63.1132,"RA_OF_ASC_NODE":108.3493,"ARG_OF_PERICENTER":73.2599,"MEAN_ANOMALY":295.6167,"EPHEMERIS_TYPE":0,"CLASSIFICATION_TYPE":"U","NORAD_CAT_ID":4711,"ELEMENT_SET_NO":999,"REV_AT_EPOCH":64140,"BSTAR":0.00048214428,"MEAN_MOTION_DOT":1.807e-5,"MEAN_MOTION_DDOT":0}]
